OBJECT_NAME,OBJECT_ID,EPOCH,MEAN_MOTION,ECCENTRICITY,INCLINATION,RA_OF_ASC_NODE,ARG_OF_PERICENTER,MEAN_ANOMALY,EPHEMERIS_TYPE,CLASSIFICATION_TYPE,NORAD_CAT_ID,ELEMENT_SET_NO,REV_AT_EPOCH,BSTAR,MEAN_MOTION_DOT,MEAN_MOTION_DDOT
STARLINK-37975,2026-147D,2026-07-13T15:32:40.147296,15.80810931,.00037837,97.2847,230.9504,82.2797,277.8901,0,U,69707,999,361,.1271368E-2,.250506E-2,0
STARLINK-37972,2026-147E,2026-07-13T15:31:34.488480,15.80798628,.00014215,97.2830,230.9503,94.4669,265.6762,0,U,69708,999,361,.97013003E-3,.189628E-2,0
STARLINK-37963,2026-147F,2026-07-13T15:30:29.551104,15.80917310,.00008186,97.2827,230.9521,70.1136,290.0221,0,U,69709,999,361,.12844607E-2,.254379E-2,0
STARLINK-37969,2026-147G,2026-07-13T15:29:24.484992,15.80892415,.00003001,97.2839,230.9541,116.2591,243.8708,0,U,69710,999,361,.10012316E-2,.196716E-2,0
STARLINK-37956,2026-147H,2026-07-13T15:28:19.774848,15.80887119,.00013822,97.2835,230.9545,68.7526,291.3890,0,U,69711,999,361,.10037269E-2,.197166E-2,0
STARLINK-38043,2026-147J,2026-07-13T01:46:50.439360,15.80996319,.00015327,97.2837,230.3525,124.4004,235.7409,0,U,69712,999,352,.18610896E-2,.375187E-2,0
STARLINK-38020,2026-147K,2026-07-13T15:26:09.816288,15.80888834,.00013658,97.2826,230.9559,94.7582,265.3843,0,U,69713,999,361,.99326486E-3,.195077E-2,0
STARLINK-38059,2026-147L,2026-07-13T15:25:04.929888,15.80881399,.00011798,97.2839,230.9579,48.9161,311.2209,0,U,69714,999,361,.92064618E-3,.180437E-2,0
STARLINK-38061,2026-147M,2026-07-13T15:24:00.074592,15.81055775,.00010346,97.2843,230.9596,14.3354,345.7943,0,U,69715,999,361,.1262468E-2,.251522E-2,0
STARLINK-38060,2026-147N,2026-07-13T15:22:54.686208,15.80908395,.00007745,97.2831,230.9605,153.9258,206.2050,0,U,69716,999,361,.10938244E-2,.215543E-2,0
STARLINK-38040,2026-147P,2026-07-13T15:21:49.209696,15.80838142,.00021848,97.2842,230.9606,182.0704,178.0556,0,U,69717,999,361,.78829365E-3,.153706E-2,0
STARLINK-37989,2026-147Q,2026-07-13T15:20:45.050784,15.80932359,.00010043,97.2843,230.9622,62.5275,297.6095,0,U,69718,999,361,.19802148E-2,.399174E-2,0
STARLINK-38039,2026-147R,2026-07-13T14:00:01.000224,15.80837828,.00011342,97.2832,230.9035,113.6332,291.9230,0,U,69719,999,357,.49307594E-4,.9322E-4,0
STARLINK-38003,2026-147S,2026-07-13T15:18:35.296992,15.80910661,.0001257,97.2825,230.9630,76.8265,283.3143,0,U,69720,999,361,.16026291E-2,.31974E-2,0
STARLINK-38014,2026-147T,2026-07-13T15:17:29.810112,15.80821499,.00011661,97.2833,230.9654,163.2153,196.9154,0,U,69721,999,361,.53033723E-3,.102671E-2,0
STARLINK-37915,2026-147U,2026-07-13T15:16:25.756608,15.80966048,.00018379,97.2825,230.9656,54.8372,305.3068,0,U,69722,999,361,.15530294E-2,.310282E-2,0
STARLINK-38007,2026-147V,2026-07-13T14:00:01.000224,15.80838563,.00012736,97.2831,230.9025,100.8234,303.9456,0,U,69723,999,357,.79074879E-4,.15046E-3,0
STARLINK-38008,2026-147W,2026-07-13T01:33:51.234048,15.81027502,.00018501,97.2825,230.3649,136.2992,223.8424,0,U,69724,999,352,.20246099E-2,.410418E-2,0
STARLINK-38021,2026-147X,2026-07-13T15:13:10.716384,15.80919950,.00011067,97.2828,230.9687,34.0505,326.0834,0,U,69725,999,361,.12951689E-2,.256596E-2,0
STARLINK-38015,2026-147Y,2026-07-13T15:12:05.794560,15.80890824,.00008625,97.2838,230.9701,65.2539,294.8819,0,U,69726,999,361,.10246961E-2,.20142E-2,0
STARLINK-38010,2026-147Z,2026-07-13T14:05:23.756064,15.75183770,.00006724,97.2842,230.8794,97.6810,262.4531,0,U,69727,999,360,.67185461E-3,.101248E-2,0
SXM-11,2026-148A,2026-07-13T14:29:44.625408,1.00268944,.00019289,0.1168,265.4901,175.0421,307.8937,0,U,69728,999,30,0,.6E-7,0
HAIYANG-2E,2026-149A,2026-07-13T15:15:28.817280,13.79314717,.00015786,99.3454,201.5813,93.5996,266.5337,0,U,69737,999,161,-.45287473E-4,-.91E-6,0
CZ-4B R/B,2026-149B,2026-07-13T15:39:16.104672,14.30067210,.01981969,99.3217,202.5607,334.5310,24.6204,0,U,69738,999,191,.33596551E-4,.49E-6,0
STARLINK-38033,2026-150A,2026-07-13T12:02:55.813632,15.80921928,.00015582,97.2829,32.7665,118.5728,241.5697,0,U,69739,999,305,.13260466E-2,.262932E-2,0
STARLINK-38076,2026-150B,2026-07-13T14:00:01.000224,15.75216668,.00010772,97.2826,32.8220,62.9347,326.4275,0,U,69740,999,304,-.41240637E-3,-.61272E-3,0
STARLINK-38074,2026-150C,2026-07-13T11:59:12.831648,15.80921314,.00014085,97.2824,32.7694,108.6654,251.4767,0,U,69741,999,305,.13186053E-2,.261402E-2,0
STARLINK-38041,2026-150D,2026-07-13T11:58:12.853632,15.80922469,.00012641,97.2821,32.7707,114.7439,245.3961,0,U,69742,999,305,.13647893E-2,.270874E-2,0
STARLINK-38087,2026-150E,2026-07-13T11:57:02.237184,15.80934901,.00009526,97.2821,32.7717,122.6306,237.5054,0,U,69743,999,305,.15086878E-2,.300659E-2,0
STARLINK-38078,2026-150F,2026-07-13T11:55:57.495072,15.80891311,.00013112,97.2827,32.7724,105.9616,254.1797,0,U,69744,999,305,.10893343E-2,.214463E-2,0
