STARLINK-37975          
1 69707U 26147D   26194.64768689  .00250506  00000+0  12714-2 0  9999
2 69707  97.2847 230.9504 0003783  82.2797 277.8901 15.80810931  3617
STARLINK-37972          
1 69708U 26147E   26194.64692695  .00189628  00000+0  97013-3 0  9995
2 69708  97.2830 230.9503 0001421  94.4669 265.6762 15.80798628  3617
STARLINK-37963          
1 69709U 26147F   26194.64617536  .00254379  00000+0  12845-2 0  9992
2 69709  97.2827 230.9521 0000818  70.1136 290.0221 15.80917310  3616
STARLINK-37969          
1 69710U 26147G   26194.64542228  .00196716  00000+0  10012-2 0  9993
2 69710  97.2839 230.9541 0000300 116.2591 243.8708 15.80892415  3610
STARLINK-37956          
1 69711U 26147H   26194.64467332  .00197166  00000+0  10037-2 0  9993
2 69711  97.2835 230.9545 0001382  68.7526 291.3890 15.80887119  3616
STARLINK-38043          
1 69712U 26147J   26194.07419490  .00375187  00000+0  18611-2 0  9990
2 69712  97.2837 230.3525 0001532 124.4004 235.7409 15.80996319  3520
STARLINK-38020          
1 69713U 26147K   26194.64316917  .00195077  00000+0  99326-3 0  9995
2 69713  97.2826 230.9559 0001365  94.7582 265.3843 15.80888834  3619
STARLINK-38059          
1 69714U 26147L   26194.64241817  .00180437  00000+0  92065-3 0  9999
2 69714  97.2839 230.9579 0001179  48.9161 311.2209 15.80881399  3619
STARLINK-38061          
1 69715U 26147M   26194.64166753  .00251522  00000+0  12625-2 0  9992
2 69715  97.2843 230.9596 0001034  14.3354 345.7943 15.81055775  3614
STARLINK-38060          
1 69716U 26147N   26194.64091072  .00215543  00000+0  10938-2 0  9992
2 69716  97.2831 230.9605 0000774 153.9258 206.2050 15.80908395  3610
STARLINK-38040          
1 69717U 26147P   26194.64015289  .00153706  00000+0  78829-3 0  9995
2 69717  97.2842 230.9606 0002184 182.0704 178.0556 15.80838142  3619
STARLINK-37989          
1 69718U 26147Q   26194.63941031  .00399174  00000+0  19802-2 0  9994
2 69718  97.2843 230.9622 0001004  62.5275 297.6095 15.80932359  3615
STARLINK-38039          
1 69719U 26147R   26194.58334491  .00009322  00000+0  49308-4 0  9994
2 69719  97.2832 230.9035 0001134 113.6332 291.9230 15.80837828  3576
STARLINK-38003          
1 69720U 26147S   26194.63790853  .00319740  00000+0  16026-2 0  9997
2 69720  97.2825 230.9630 0001257  76.8265 283.3143 15.80910661  3612
STARLINK-38014          
1 69721U 26147T   26194.63715058  .00102671  00000+0  53034-3 0  9996
2 69721  97.2833 230.9654 0001166 163.2153 196.9154 15.80821499  3615
STARLINK-37915          
1 69722U 26147U   26194.63640922  .00310282  00000+0  15530-2 0  9991
2 69722  97.2825 230.9656 0001837  54.8372 305.3068 15.80966048  3612
STARLINK-38007          
1 69723U 26147V   26194.58334491  .00015046  00000+0  79075-4 0  9993
2 69723  97.2831 230.9025 0001273 100.8234 303.9456 15.80838563  3573
STARLINK-38008          
1 69724U 26147W   26194.06517632  .00410418  00000+0  20246-2 0  9993
2 69724  97.2825 230.3649 0001850 136.2992 223.8424 15.81027502  3522
STARLINK-38021          
1 69725U 26147X   26194.63415181  .00256596  00000+0  12952-2 0  9993
2 69725  97.2828 230.9687 0001106  34.0505 326.0834 15.80919950  3610
STARLINK-38015          
1 69726U 26147Y   26194.63340040  .00201420  00000+0  10247-2 0  9996
2 69726  97.2838 230.9701 0000862  65.2539 294.8819 15.80890824  3613
STARLINK-38010          
1 69727U 26147Z   26194.58708051  .00101248  00000+0  67185-3 0  9992
2 69727  97.2842 230.8794 0000672  97.6810 262.4531 15.75183770  3600
SXM-11                  
1 69728U 26148A   26194.60398872  .00000006  00000+0  00000+0 0  9992
2 69728   0.1168 265.4901 0001928 175.0421 307.8937  1.00268944   301
HAIYANG-2E              
1 69737U 26149A   26194.63575020 -.00000091  00000+0 -45287-4 0  9995
2 69737  99.3454 201.5813 0001578  93.5996 266.5337 13.79314717  1613
CZ-4B R/B               
1 69738U 26149B   26194.65226973  .00000049  00000+0  33597-4 0  9990
2 69738  99.3217 202.5607 0198196 334.5310  24.6204 14.30067210  1914
STARLINK-38033          
1 69739U 26150A   26194.50203488  .00262932  00000+0  13260-2 0  9997
2 69739  97.2829  32.7665 0001558 118.5728 241.5697 15.80921928  3050
STARLINK-38076          
1 69740U 26150B   26194.58334491 -.00061272  00000+0 -41241-3 0  9993
2 69740  97.2826  32.8220 0001077  62.9347 326.4275 15.75216668  3048
STARLINK-38074          
1 69741U 26150C   26194.49945407  .00261402  00000+0  13186-2 0  9990
2 69741  97.2824  32.7694 0001408 108.6654 251.4767 15.80921314  3059
STARLINK-38041          
1 69742U 26150D   26194.49875988  .00270874  00000+0  13648-2 0  9993
2 69742  97.2821  32.7707 0001264 114.7439 245.3961 15.80922469  3051
STARLINK-38087          
1 69743U 26150E   26194.49794256  .00300659  00000+0  15087-2 0  9996
2 69743  97.2821  32.7717 0000952 122.6306 237.5054 15.80934901  3057
STARLINK-38078          
1 69744U 26150F   26194.49719323  .00214463  00000+0  10893-2 0  9996
2 69744  97.2827  32.7724 0001311 105.9616 254.1797 15.80891311  3056
